format  = 'OEF1.1'       ! file format
rectype = 'ML'           ! record type (1L/ML)
refsys  = ECLM J2000     ! default reference system
END_OF_HEADER
mult_1
! Equinoctial elements: a, e*sin(LP), e*cos(LP), tan(i/2)*sin(LN), tan(i/2)*cos(LN), mean long.
 EQU   9.22246749792199E-01  -0.093178255751023   0.166967646985310   -0.012063028351135   -0.026457022528084  77.1205116828195
 MJD     53372.189568620 TDT
 MAG  19.225  0.150
! RMS    1.69561E-09   1.85000E-08   7.84198E-08   5.65066E-08   1.87706E-08   8.38354E-06
! EIG   1.46921E-10   1.76711E-09   1.10695E-08   2.22445E-08   5.83163E-08   1.65616E-07
! WEA   0.00620   0.02089  -0.46578  -0.05491  -0.02136   0.88267
 COV   2.875080023543648E-18  1.339530624811805E-17 -9.654132418334933E-17
 COV   5.735417119088120E-17 -2.046497407886656E-17  8.271389988742850E-15
 COV   3.422492938199756E-16 -4.452098090607019E-16 -3.130810673919589E-17
 COV  -1.343080144604818E-16  2.296952371146540E-14  6.149670890722545E-15
 COV   1.814174293415322E-16  4.286625034751021E-16 -6.414787028695995E-13
 COV   3.192991376357635E-15 -7.205072355132949E-16 -8.187584633144901E-14
 COV   3.523355833243597E-16 -2.696052743921432E-14  7.028378796223966E-11
 NOR   4.615419936027102E+19 -2.058633407194805E+18 -1.094519955003322E+17
 NOR  -1.337900980246184E+18 -1.304850732299467E+18 -7.816965088734195E+15
 NOR   1.992402856823154E+17  1.253922064707062E+17  9.424913347021813E+16
 NOR   1.092924601952212E+17  1.473327607809000E+15  1.410532644325278E+17
 NOR   4.259775523851219E+16  5.882575147765346E+16  1.331480406020005E+15
 NOR   5.067563348907489E+16  5.561064603101574E+16  5.958045203041066E+14
 NOR   6.791195106118898E+16  7.455789240932600E+14  1.358513940664497E+13
mult_2
! Equinoctial elements: a, e*sin(LP), e*cos(LP), tan(i/2)*sin(LN), tan(i/2)*cos(LN), mean long.
 EQU   9.22246750818260E-01  -0.093178252290723   0.166967569844924   -0.012063037444499   -0.026457026066157  77.1205200585367
 MJD     53372.189568620 TDT
 MAG  19.225  0.150
! RMS    1.69560E-09   1.85000E-08   7.84199E-08   5.65066E-08   1.87706E-08   8.38355E-06
! EIG   1.46920E-10   1.76711E-09   1.10695E-08   2.22445E-08   5.83163E-08   1.65616E-07
! WEA   0.00620   0.02089  -0.46578  -0.05491  -0.02136   0.88267
 COV   2.875070009045761E-18  1.339527489242925E-17 -9.654123243143691E-17
 COV   5.735414190798036E-17 -2.046495644180654E-17  8.271381705163271E-15
 COV   3.422493278816383E-16 -4.452096028790880E-16 -3.130785647355974E-17
 COV  -1.343080447217693E-16  2.296949038807328E-14  6.149678441103096E-15
 COV   1.814137228246563E-16  4.286637377388910E-16 -6.414794029942111E-13
 COV   3.192993327799480E-15 -7.205079010103510E-16 -8.187552241257996E-14
 COV   3.523358183053508E-16 -2.696063956089196E-14  7.028385412899492E-11
 NOR   4.615439074376535E+19 -2.058638394114896E+18 -1.094540542069128E+17
 NOR  -1.337903953608129E+18 -1.304853592568185E+18 -7.816994515879543E+15
 NOR   1.992403672954232E+17  1.253923046988835E+17  9.424918197937480E+16
 NOR   1.092925117349117E+17  1.473328594708046E+15  1.410532819229304E+17
 NOR   4.259782897674993E+16  5.882583042726714E+16  1.331480987691394E+15
 NOR   5.067565515401986E+16  5.561066999711170E+16  5.958051674065431E+14
 NOR   6.791197769970147E+16  7.455796367257229E+14  1.358514757814247E+13
mult_3
! Equinoctial elements: a, e*sin(LP), e*cos(LP), tan(i/2)*sin(LN), tan(i/2)*cos(LN), mean long.
 EQU   9.22246751844337E-01  -0.093178248830415   0.166967492704559   -0.012063046537837   -0.026457029604211  77.1205284342547
 MJD     53372.189568620 TDT
 MAG  19.225  0.150
! RMS    1.69560E-09   1.85000E-08   7.84199E-08   5.65066E-08   1.87706E-08   8.38355E-06
! EIG   1.46920E-10   1.76711E-09   1.10695E-08   2.22445E-08   5.83163E-08   1.65616E-07
! WEA   0.00620   0.02089  -0.46578  -0.05491  -0.02136   0.88267
 COV   2.875059994757466E-18  1.339524353712543E-17 -9.654114068095263E-17
 COV   5.735411262532606E-17 -2.046493880492901E-17  8.271373421725454E-15
 COV   3.422493619435199E-16 -4.452093966844205E-16 -3.130760621419905E-17
 COV  -1.343080749809900E-16  2.296945706345302E-14  6.149685991358005E-15
 COV   1.814100163810778E-16  4.286649719765210E-16 -6.414801031081157E-13
 COV   3.192995279198970E-15 -7.205085664932838E-16 -8.187519849996529E-14
 COV   3.523360532818455E-16 -2.696075168029796E-14  7.028392029484460E-11
 NOR   4.615458212480010E+19 -2.058643380966880E+18 -1.094561128885991E+17
 NOR  -1.337906926935177E+18 -1.304856452803923E+18 -7.817023942694114E+15
 NOR   1.992404489075429E+17  1.253924029258199E+17  9.424923048831792E+16
 NOR   1.092925632743821E+17  1.473329581598828E+15  1.410532994138487E+17
 NOR   4.259790271399955E+16  5.882590937591677E+16  1.331481569361846E+15
 NOR   5.067567681917150E+16  5.561069396339862E+16  5.958058145039559E+14
 NOR   6.791200433836439E+16  7.455803493532679E+14  1.358515574961660E+13
mult_4
! Equinoctial elements: a, e*sin(LP), e*cos(LP), tan(i/2)*sin(LN), tan(i/2)*cos(LN), mean long.
 EQU   9.22246752870405E-01  -0.093178245370074   0.166967415564129   -0.012063055630998   -0.026457033142337  77.1205368099711
 MJD     53372.189568620 TDT
 MAG  19.225  0.150
! RMS    1.69560E-09   1.85000E-08   7.84200E-08   5.65066E-08   1.87706E-08   8.38355E-06
! EIG   1.46920E-10   1.76711E-09   1.10695E-08   2.22445E-08   5.83163E-08   1.65616E-07
! WEA   0.00620   0.02089  -0.46578  -0.05491  -0.02136   0.88267
 COV   2.875049978255116E-18  1.339521217736313E-17 -9.654104890214641E-17
 COV   5.735408333331760E-17 -2.046492116327096E-17  8.271365135609681E-15
 COV   3.422493960075965E-16 -4.452091905399942E-16 -3.130735591296031E-17
 COV  -1.343081052497929E-16  2.296942374255378E-14  6.149693542557860E-15
 COV   1.814063092827272E-16  4.286662064066892E-16 -6.414808033016013E-13
 COV   3.192997231041209E-15 -7.205092321009740E-16 -8.187487453125274E-14
 COV   3.523362882933277E-16 -2.696086381627430E-14  7.028398646738754E-11
 NOR   4.615477353976988E+19 -2.058648368717375E+18 -1.094581720076265E+17
 NOR  -1.337909900647618E+18 -1.304859313412780E+18 -7.817053374471015E+15
 NOR   1.992405305355382E+17  1.253925011714097E+17  9.424927899848749E+16
 NOR   1.092926148150369E+17  1.473330568624240E+15  1.410533169049782E+17
 NOR   4.259797646337189E+16  5.882598833620085E+16  1.331482151098589E+15
 NOR   5.067569847905541E+16  5.561071792459976E+16  5.958064616565416E+14
 NOR   6.791203097210748E+16  7.455810620339076E+14  1.358516392184517E+13
mult_5
! Equinoctial elements: a, e*sin(LP), e*cos(LP), tan(i/2)*sin(LN), tan(i/2)*cos(LN), mean long.
 EQU   9.22246753896471E-01  -0.093178241909771   0.166967338423689   -0.012063064724129   -0.026457036680464  77.1205451856875
 MJD     53372.189568620 TDT
 MAG  19.225  0.150
! RMS    1.69559E-09   1.85000E-08   7.84200E-08   5.65066E-08   1.87706E-08   8.38356E-06
! EIG   1.46920E-10   1.76711E-09   1.10695E-08   2.22445E-08   5.83164E-08   1.65616E-07
! WEA   0.00620   0.02089  -0.46578  -0.05491  -0.02136   0.88267
 COV   2.875039961827461E-18  1.339518081763578E-17 -9.654095712244041E-17
 COV   5.735405404110017E-17 -2.046490352147630E-17  8.271356849405926E-15
 COV   3.422494300718288E-16 -4.452089843826524E-16 -3.130710561604884E-17
 COV  -1.343081355167751E-16  2.296939042036250E-14  6.149701093641582E-15
 COV   1.814026022252777E-16  4.286674408169763E-16 -6.414815034843814E-13
 COV   3.192999182863819E-15 -7.205098977012492E-16 -8.187455056626153E-14
 COV   3.523365233016272E-16 -2.696097595039683E-14  7.028405263895131E-11
 NOR   4.615496495417304E+19 -2.058653356443208E+18 -1.094602311217746E+17
 NOR  -1.337912874350715E+18 -1.304862174013419E+18 -7.817082806166364E+15
 NOR   1.992406121628153E+17  1.253925994165028E+17  9.424932750858717E+16
 NOR   1.092926663556730E+17  1.473331555645699E+15  1.410533343963703E+17
 NOR   4.259805021241441E+16  5.882606729620149E+16  1.331482732835194E+15
 NOR   5.067572013914297E+16  5.561074188603010E+16  5.958071088079241E+14
 NOR   6.791205760610782E+16  7.455817747137904E+14  1.358517209406461E+13
mult_6
! Equinoctial elements: a, e*sin(LP), e*cos(LP), tan(i/2)*sin(LN), tan(i/2)*cos(LN), mean long.
 EQU   9.22246754922520E-01  -0.093178238449496   0.166967261283269   -0.012063073817228   -0.026457040218574  77.1205535614046
 MJD     53372.189568620 TDT
 MAG  19.225  0.150
! RMS    1.69559E-09   1.85000E-08   7.84201E-08   5.65066E-08   1.87706E-08   8.38356E-06
! EIG   1.46919E-10   1.76711E-09   1.10695E-08   2.22445E-08   5.83164E-08   1.65616E-07
! WEA   0.00620   0.02089  -0.46578  -0.05491  -0.02136   0.88267
 COV   2.875029947493647E-18  1.339514946216052E-17 -9.654086536928802E-17
 COV   5.735402475676745E-17 -2.046488588405913E-17  8.271348565736198E-15
 COV   3.422494641330865E-16 -4.452087781794879E-16 -3.130685536007648E-17
 COV  -1.343081657745479E-16  2.296935709493657E-14  6.149708643885231E-15
 COV   1.813988957611613E-16  4.286686750567036E-16 -6.414822035967228E-13
 COV   3.193001134278393E-15 -7.205105631871583E-16 -8.187422665166961E-14
 COV   3.523367582786288E-16 -2.696108807000235E-14  7.028411880459885E-11
 NOR   4.615515633858322E+19 -2.058658343363799E+18 -1.094622898547040E+17
 NOR  -1.337915847698995E+18 -1.304865034270285E+18 -7.817112233494511E+15
 NOR   1.992406937759725E+17  1.253926976448274E+17  9.424937601724170E+16
 NOR   1.092927178948589E+17  1.473332542547192E+15  1.410533518879524E+17
 NOR   4.259812395038167E+16  5.882614624550792E+16  1.331483314514406E+15
 NOR   5.067574180352858E+16  5.561076585157622E+16  5.958077559078850E+14
 NOR   6.791208424403885E+16  7.455824873435871E+14  1.358518026562490E+13
mult_7
! Equinoctial elements: a, e*sin(LP), e*cos(LP), tan(i/2)*sin(LN), tan(i/2)*cos(LN), mean long.
 EQU   9.22246755948592E-01  -0.093178234989152   0.166967184142787   -0.012063082910157   -0.026457043756754  77.1205619371203
 MJD     53372.189568620 TDT
 MAG  19.225  0.150
! RMS    1.69559E-09   1.85000E-08   7.84201E-08   5.65067E-08   1.87706E-08   8.38357E-06
! EIG   1.46919E-10   1.76711E-09   1.10695E-08   2.22445E-08   5.83164E-08   1.65616E-07
! WEA   0.00620   0.02089  -0.46578  -0.05491  -0.02136   0.88267
 COV   2.875019933425523E-18  1.339511810710643E-17 -9.654077361726351E-17
 COV   5.735399547339836E-17 -2.046486824698431E-17  8.271340282157570E-15
 COV   3.422494981932655E-16 -4.452085719611492E-16 -3.130660511224479E-17
 COV  -1.343081960295181E-16  2.296932376818269E-14  6.149716193986157E-15
 COV   1.813951894006546E-16  4.286699092642473E-16 -6.414829036973219E-13
 COV   3.193003085627422E-15 -7.205112286520494E-16 -8.187390274596262E-14
 COV   3.523369932488170E-16 -2.696120018687016E-14  7.028418496929298E-11
 NOR   4.615534771885191E+19 -2.058663330165497E+18 -1.094643485517236E+17
 NOR  -1.337918820994220E+18 -1.304867894474837E+18 -7.817141660196230E+15
 NOR   1.992407753869007E+17  1.253927958713219E+17  9.424942452552950E+16
 NOR   1.092927694336254E+17  1.473333529429976E+15  1.410533693797504E+17
 NOR   4.259819768703071E+16  5.882622519352483E+16  1.331483896188464E+15
 NOR   5.067576346846221E+16  5.561078981760469E+16  5.958084029987068E+14
 NOR   6.791211088239166E+16  7.455831999642150E+14  1.358518843708898E+13
